[{"OBJECT_NAME":"STARLINK-5200","OBJECT_ID":"2022-136BE","EPOCH":"2026-03-09T22:14:28.901760","MEAN_MOTION":15.0883484,"ECCENTRICITY":0.00011218,"INCLINATION":53.2183,"RA_OF_ASC_NODE":312.8435,"ARG_OF_PERICENTER":87.9741,"MEAN_ANOMALY":272.138,"EPHEMERIS_TYPE":0,"CLASSIFICATION_TYPE":"U","NORAD_CAT_ID":54103,"ELEMENT_SET_NO":999,"REV_AT_EPOCH":18730,"BSTAR":4.7769476e-5,"MEAN_MOTION_DOT":4.72e-6,"MEAN_MOTION_DDOT":0},{"OBJECT_NAME":"THE ARAB SATELLITE 813","OBJECT_ID":"2025-292B","EPOCH":"2026-03-09T21:37:26.354208","MEAN_MOTION":15.05594469,"ECCENTRICITY":0.00142186,"INCLINATION":97.6379,"RA_OF_ASC_NODE":145.6178,"ARG_OF_PERICENTER":341.4344,"MEAN_ANOMALY":18.6363,"EPHEMERIS_TYPE":0,"CLASSIFICATION_TYPE":"U","NORAD_CAT_ID":66994,"ELEMENT_SET_NO":999,"REV_AT_EPOCH":1350,"BSTAR":0.00043840303,"MEAN_MOTION_DOT":6.274e-5,"MEAN_MOTION_DDOT":0}]
